SL-12 R/B(2)            
1 15772U 85042D   26060.83735215  .00000144  00000+0  86093-4 0  9997
2 15772  71.1065 104.3199 0033622 140.9818  32.2375 14.21979922113270
SL-14 R/B               
1 15945U 85069B   26060.39790976  .00000664  00000+0  72285-4 0  9999
2 15945  82.5267  32.7296 0017759 216.0416 143.9604 14.86421611171600
SL-16 R/B               
1 16182U 85097B   26060.73485191  .00000067  00000+0  57342-4 0  9996
2 16182  71.0037 157.3002 0009862 268.9259 202.8079 14.16599258 86105
SL-14 R/B               
1 16496U 86006B   26060.64633348  .00000705  00000+0  72478-4 0  9990
2 16496  82.5236 267.3093 0075251 299.9988  59.3774 14.86802542148017
COSMOS 1743             
1 16719U 86034A   26060.55055206  .00038346  00000+0  51220-3 0  9993
2 16719  82.5300  82.3698 0002543 346.0637  14.0548 15.57886448178984
SL-14 R/B               
1 16792U 86046B   26060.65734450  .00000534  00000+0  58724-4 0  9998
2 16792  82.4783  87.7737 0021594 253.4957 106.3886 14.85581121125213
SL-14 R/B               
1 16882U 86055B   26060.73174213  .00000519  00000+0  57025-4 0  9998
2 16882  82.5216 134.1533 0018884   3.3156 117.7522 14.85633958118184
AJISAI (EGS)            
1 16908U 86061A   26060.86777159 -.00000088  00000+0  66599-4 0  9994
2 16908  50.0081 117.4009 0011243 266.8711 262.6883 12.44515484467026
COSMOS 1812             
1 17295U 87003A   26060.70429323  .01313129 -12010-5  80777-3 0  9998
2 17295  82.4733 204.7715 0006534 287.6253  72.4320 16.18044831143192
SL-14 R/B               
1 17567U 87024B   26060.82834019  .00000506  00000+0  54886-4 0  9991
2 17567  82.5254 100.1544 0016707 288.3695  71.5705 14.86123236 86961
COSMOS 1833             
1 17589U 87027A   26060.79026324 -.00000131  00000+0 -44337-4 0  9992
2 17589  70.9232 342.6198 0024604 225.4198 134.4915 14.13056384  9208
SL-16 R/B               
1 17590U 87027B   26060.78682265 -.00000174  00000+0 -62536-4 0  9993
2 17590  71.0021 293.1494 0003806 159.1916 200.9364 14.17166831 14227
SL-14 R/B               
1 17912U 87038B   26060.75190053  .00000516  00000+0  56999-4 0  9993
2 17912  82.5017 304.2855 0018989 186.3968 173.7009 14.85360975 78053
COSMOS 1844             
1 17973U 87041A   26060.40953416 -.00000027  00000+0  10941-4 0  9991
2 17973  70.8991  51.6401 0029571  30.4858 329.7975 14.14553227  2415
SL-14 R/B               
1 18153U 87055B   26060.79759703  .00000682  00000+0  75726-4 0  9990
2 18153  82.5026 356.4671 0021773  42.9294 317.3616 14.85617962 68768
COSMOS 1867             
1 18187U 87060A   26060.82635800 -.00000026  00000+0  27705-4 0  9995
2 18187  65.0120 328.7259 0014380 278.1644  81.7810 14.31501523 18813
SL-14 R/B               
1 18749U 88001B   26060.79233743  .00000691  00000+0  77139-4 0  9994
2 18749  82.5139 202.7864 0016590 264.0266  95.9059 14.85516065 40850
COSMOS 1933             
1 18958U 88020A   26060.61594410  .00005179  00000+0  25409-3 0  9997
2 18958  82.5095 258.9022 0003222 212.5027 147.6008 15.17897279 49003
SL-3 R/B                
1 19046U 88032B   26060.83201614  .00007181  00000+0  33608-3 0  9999
2 19046  97.5174  44.1116 0024093 260.9985  98.8523 15.19795493 50912
SL-16 R/B               
1 19120U 88039B   26060.80663851  .00000161  00000+0  98858-4 0  9991
2 19120  71.0128  85.2180 0022301 346.0390  14.0116 14.19615049957263
COSMOS 1953             
1 19210U 88050A   26060.76943406  .00010569  00000+0  38085-3 0  9994
2 19210  82.5114 166.2096 0012147 148.1522 212.0454 15.28350590 36571
SL-8 R/B                
1 19257U 88053B   26060.67219259  .00000277  00000+0  98200-4 0  9991
2 19257  74.0471 127.2449 0021205 307.7641 170.6435 14.38910072975446
COSMOS 1975             
1 19573U 88093A   26060.66988582  .00008860  00000+0  32340-3 0  9995
2 19573  82.5204 125.7347 0011379 191.1597 168.9392 15.27922171 18184
SL-14 R/B               
1 19574U 88093B   26060.45524876  .00000684  00000+0  75787-4 0  9994
2 19574  82.5289  49.7747 0022208  67.1816  47.2516 14.85644508999819
SL-16 R/B               
1 19650U 88102B   26060.71126510 -.00000151  00000+0 -52138-4 0  9998
2 19650  70.9999 168.2830 0013464  13.7096 346.4390 14.16149492925767
INTERCOSMOS 24          
1 20261U 89080A   26060.22425134  .00000736  00000+0  21821-3 0  9995
2 20261  82.6036 109.9167 1186900 312.4888  38.1632 12.59542780665733
SL-14 R/B               
1 20262U 89080C   26060.79389230  .00000698  00000+0  20789-3 0  9993
2 20262  82.5971 178.2535 1230263 202.7932 151.3742 12.50481556659166
DELTA 1 R/B             
1 20323U 89089B   26060.55060539  .00000435  00000+0  11590-3 0  9991
2 20323  97.0711 269.2837 0069941 147.3275 213.2279 14.50655375894550
ARIANE 40 R/B           
1 20443U 90005H   26060.75254601  .00000300  00000+0  10892-3 0  9996
2 20443  98.3101 121.6499 0009369 223.3598 136.6854 14.39864180891665
DELTA 2 R/B(1)          
1 20453U 90008B   26060.54377828  .00074143  00000+0  90457-3 0  9995
2 20453  35.6027 228.2657 0087148 183.1700 176.8491 15.54713167924864
COSMOS 2058             
1 20465U 90010A   26060.43797876  .00004775  00000+0  28222-3 0  9993
2 20465  82.4663  55.5574 0009960  10.7417 349.4024 15.11232471940997
